FENGYUN 1C DEB          
1 30168U 99025TZ  17345.85106286  .00000878  00000-0  34168-3 0  9997
2 30168  97.4037  88.8606 0147335  51.6570 309.7750 14.25860327564951
